KUIPER-00027            
1 63740U 25088S   25253.08099406  .00005022  00000+0  41110-3 0  9994
2 63740  51.8926 174.7910 0002923 290.7955  69.2703 15.00855033 20868
KUIPER-00028            
1 63741U 25088T   25252.91668981 -.01081432  00000+0 -76326-1 0  9993
2 63741  51.8993 174.2035 0002314 269.1124 186.4674 15.07415576  4949
KUIPER-00029            
1 63742U 25088U   25253.25003472 -.00293971  00000+0 -17380-1 0  9997
2 63742  51.8952 171.8875 0004589 250.6643 169.1598 15.12433840  5334
KUIPER-00030            
1 63743U 25088V   25253.20435374  .00007924  00000+0  10659-2 0  9995
2 63743  51.9015 188.6362 0013423 197.5120 162.5381 14.79939953 20904
KUIPER-00031            
1 63744U 25088W   25253.25003472 -.01400262  00000+0 -14042+0 0  9993
2 63744  51.8901 175.0017 0002192 191.2603 120.9152 14.94452631  4088
KUIPER-00032            
1 63745U 25088X   25253.07655377  .00013653  00000+0  47553-3 0  9999
2 63745  51.8722 172.3934 0004787 179.4076 180.6914 15.29941527 21839
KUIPER-00033            
1 63746U 25088Y   25252.30871018 -.00000709  00000+0 -63898-4 0  9998
2 63746  51.9016 208.6564 0003055 324.1528  35.9229 14.79939602 20742
KUIPER-00034            
1 63747U 25088Z   25253.07349108 -.00195981  00000+0 -93171-2 0  9996
2 63747  51.8791 171.0120 0001728 147.0373 213.0715 15.19592995 21013
